#aV2022  1 13  0  0  0.00000000     288 DD+AD WGS84 FIT  NGA
## 2192 345600.00000000   300.00000000 59592 0.0000000000000
+   32     1  2  3  4  5  6  7  8  9 10 11 12 13 14 15 16 17
+         18 19 20 21 22 23 24 25 26 27 28 29 30 31 32  0  0
+          0  0  0  0  0  0  0  0  0  0  0  0  0  0  0  0  0
+          0  0  0  0  0  0  0  0  0  0  0  0  0  0  0  0  0
+          0  0  0  0  0  0  0  0  0  0  0  0  0  0  0  0  0
++         2  2  2  2  2  2  2  2  2  2  2  2  2  2  2  2  2
++         2  2  2  2  2  2  2  2  2  2  2  2  2  2  2  0  0
++         0  0  0  0  0  0  0  0  0  0  0  0  0  0  0  0  0
++         0  0  0  0  0  0  0  0  0  0  0  0  0  0  0  0  0
++         0  0  0  0  0  0  0  0  0  0  0  0  0  0  0  0  0
%c cc cc ccc ccc cccc cccc cccc cccc ccccc ccccc ccccc ccccc
%c cc cc ccc ccc cccc cccc cccc cccc ccccc ccccc ccccc ccccc
%f  0.0000000  0.000000000  0.00000000000  0.000000000000000
%f  0.0000000  0.000000000  0.00000000000  0.000000000000000
%i    0    0    0    0      0      0      0      0         0
%i    0    0    0    0      0      0      0      0         0
/*      NGA, ST. LOUIS,MO.                                  
/*   EPHEMERIS COMPUTED FROM 2 DAYS OF DATA                 
/*   EPOCHA v7 SMOOTHER                                     
/*   G2139 IERS2010 SATIGS SATAPC                           
*  2022  1 13  6  5  0.00000000
P  1  17495.716316  13588.199934 -15182.863863    458.637487                    
V  1 -18485.551520  -2370.597049 -23527.427287     -0.098384                    
P  2   5160.142581 -14856.635972  22080.727016   -648.490093                    
V  2  26281.482689   2928.547483  -4192.670381     -0.009941                    
P  3  13022.270769  22100.078356   6993.991823    -76.324673                    
V  3    918.766714   9214.402329 -30277.198614     -0.148269                    
P  4   8617.199217  12914.289320  21544.051789   -195.181068                    
V  4 -18679.894209  19996.749154  -4593.109868      0.017214                    
P  5  -4192.141348 -24901.972378   7816.835060    -67.722203                    
V  5   6450.468975   8378.282094  29684.152943     -0.013090                    
P  6  20585.708795  -6669.158419  15517.816933    169.449590                    
V  6  18928.938643   4878.558929 -23052.285763      0.109101                    
P  7  26152.502192   5905.982427   1427.863015    301.239932                    
V  7  -1813.026894   2409.200751  31140.548354      0.037072                    
P  8   -885.914727  20049.669849 -17238.668040    -51.952024                    
V  8 -15266.991822  15916.101490  19648.863780     -0.015472                    
P  9  17118.844438   1626.463941  20177.007267   -358.070437                    
V  9 -15426.679623  20706.497261  11346.222424      0.011456                    
P 10 -14357.495644   4090.431230 -21838.998982   -292.294851                    
V 10  -9591.985761 -26319.069770   1081.660830     -0.096050                    
P 11   7541.144140 -13629.911562  21509.385613    -38.571015                    
V 11  26465.788973   6778.866062  -4995.671810     -0.364875                    
P 12 -10101.899957 -24147.583529   4650.300889   -155.069262                    
V 12    590.951491  -6612.469222 -31166.310485     -0.056488                    
P 13   9754.374979 -20966.649802 -13076.503033    244.542109                    
V 13  13593.944319  -9422.410082  25701.698388      0.060306                    
P 14  14992.473198  -3460.750529 -21655.000156    -69.896746                    
V 14   8163.101992  26269.123362   1391.429468     -0.054128                    
P 15  -2435.994175 -20094.434719 -17438.624845    -91.926003                    
V 15  13705.299882 -16838.531739  18231.024067      0.028543                    
P 16  -1194.268733  23979.275545  10563.554080   -454.880975                    
V 16  -6047.508010 -12836.237525  28227.697332     -0.054695                    
P 17  21101.833965 -11338.022667 -11078.185827    560.725295                    
V 17  -8711.575231  11999.731358 -27742.260567      0.052399                    
P 18 -26051.395820  -5443.057847    302.571994    261.807615                    
V 18    857.865827  -2312.959126  31892.824198     -0.073110                    
P 19  20736.651457 -15973.278266  -4157.765738    104.890322                    
V 19  -1983.640942   5116.112324 -31690.535220      0.049796                    
P 20   2347.951271 -20791.472152  16499.177047    517.196430                    
V 20  11802.204868  17393.856674  19975.190799     -0.001716                    
P 21   9184.319553  14732.640519 -19589.965790    155.996447                    
V 21 -26186.981466  -1617.230262 -12453.230098      0.007998                    
P 22  10384.963445  24488.678466  -1885.495015   -418.712826                    
V 22  -4133.915126   -868.319185 -30988.757223      0.088866                    
P 23 -17045.349866  -8181.797194 -18706.180158     11.715074                    
V 23  -7412.846193 -22517.900103  16526.436014     -0.038657                    
P 24 -13970.911297 -14603.774423 -17725.723241    277.139788                    
V 24  21938.191041    467.234728 -17559.756973      0.000513                    
P 25 -16222.499044 -15576.841793  14070.589937    270.137080                    
V 25  -4298.492709 -17844.127633 -23957.323203      0.055559                    
P 26  -9017.559224  15393.026407  19508.315337    173.905997                    
V 26 -11183.298310 -22531.559977  12864.375493      0.034020                    
P 27 -10499.640423  22364.480410  -9392.226461     65.406524                    
V 27  -9442.263548   7425.594478  29193.354300      0.221808                    
P 28  11213.845969 -12185.648766 -20292.872893    423.176015                    
V 28   7542.845501  25816.050874 -10834.287064     -0.079237                    
P 29 -14479.148519  -5719.512285  21486.989966   -466.647042                    
V 29  18784.236830 -19827.716062   7310.519802     -0.048437                    
P 30  25336.655493  -1105.101755  -8225.638503   -506.369051                    
V 30   9683.068372   5153.997438  28653.165218     -0.026493                    
P 31 -19229.800336   8053.737139  16599.611778   -159.704107                    
V 31 -20374.136779  -5893.273850 -20127.898409     -0.018221                    
P 32 -20074.998891  15088.797112  -8230.246314    -49.728032                    
V 32   4614.252878 -10046.214607 -29423.963522     -0.060534                    
EOF
